{"type":"FeatureCollection","meta":{"source":"Crimean-Congo hemorrhagic fever human case occurrence data (digitised)","generatedAt":"2026-08-28T12:57:41.145Z","totalPoints":133,"totalsByCountry":{"Uganda":64,"Sudan":67,"South Sudan":3,"Kenya":1,"Abyei (Sudan/South Sudan border region)":7}},"features":[{"type":"Feature","geometry":{"type":"Point","coordinates":[32.4524784,0.227189089]},"properties":{"src_id":"1","incidences":3,"occurrence":1,"country":"Uganda","method":"Digitized","doi":null}},{"type":"Feature","geometry":{"type":"Point","coordinates":[31.38205005,0.505348998]},"properties":{"src_id":"2","incidences":2,"occurrence":1,"country":"Uganda","method":"Digitized","doi":null}},{"type":"Feature","geometry":{"type":"Point","coordinates":[31.98158067,3.051903305]},"properties":{"src_id":"3","incidences":1,"occurrence":1,"country":"Uganda","method":"Digitized","doi":null}},{"type":"Feature","geometry":{"type":"Point","coordinates":[32.4329831,1.352203829]},"properties":{"src_id":"4","incidences":1,"occurrence":1,"country":"Uganda","method":"Digitized","doi":null}},{"type":"Feature","geometry":{"type":"Point","coordinates":[32.17560346,1.045773192]},"properties":{"src_id":"5","incidences":1,"occurrence":1,"country":"Uganda","method":"Digitized","doi":null}},{"type":"Feature","geometry":{"type":"Point","coordinates":[31.22807304,1.578746697]},"properties":{"src_id":"6","incidences":1,"occurrence":1,"country":"Uganda","method":"Digitized","doi":null}},{"type":"Feature","geometry":{"type":"Point","coordinates":[31.00435381,0.453252085]},"properties":{"src_id":"7","incidences":1,"occurrence":1,"country":"Uganda","method":"Digitized","doi":null}},{"type":"Feature","geometry":{"type":"Point","coordinates":[31.34155145,-0.022640774]},"properties":{"src_id":"8","incidences":1,"occurrence":1,"country":"Uganda","method":"Digitized","doi":null}},{"type":"Feature","geometry":{"type":"Point","coordinates":[31.43277685,-0.411864495]},"properties":{"src_id":"9","incidences":1,"occurrence":1,"country":"Uganda","method":"Digitized","doi":null}},{"type":"Feature","geometry":{"type":"Point","coordinates":[33.22784612,1.764602814]},"properties":{"src_id":"10","incidences":1,"occurrence":1,"country":"Uganda","method":"Digitized","doi":null}},{"type":"Feature","geometry":{"type":"Point","coordinates":[32.69114186,0.425593922]},"properties":{"src_id":"1","incidences":1,"occurrence":1,"country":"Uganda","method":"Digitized","doi":null}},{"type":"Feature","geometry":{"type":"Point","coordinates":[32.47890999,0.871227986]},"properties":{"src_id":"2","incidences":1,"occurrence":1,"country":"Uganda","method":"Digitized","doi":null}},{"type":"Feature","geometry":{"type":"Point","coordinates":[32.04514495,1.204648803]},"properties":{"src_id":"3","incidences":1,"occurrence":1,"country":"Uganda","method":"Digitized","doi":null}},{"type":"Feature","geometry":{"type":"Point","coordinates":[32.01950696,1.3452615]},"properties":{"src_id":"4","incidences":1,"occurrence":1,"country":"Uganda","method":"Digitized","doi":null}},{"type":"Feature","geometry":{"type":"Point","coordinates":[31.60211583,1.377366683]},"properties":{"src_id":"5","incidences":1,"occurrence":1,"country":"Uganda","method":"Digitized","doi":null}},{"type":"Feature","geometry":{"type":"Point","coordinates":[30.28605922,0.449077018]},"properties":{"src_id":"6","incidences":1,"occurrence":1,"country":"Uganda","method":"Digitized","doi":null}},{"type":"Feature","geometry":{"type":"Point","coordinates":[30.48031164,-0.124733443]},"properties":{"src_id":"7","incidences":1,"occurrence":1,"country":"Uganda","method":"Digitized","doi":null}},{"type":"Feature","geometry":{"type":"Point","coordinates":[30.81867279,-0.485954727]},"properties":{"src_id":"8","incidences":1,"occurrence":1,"country":"Uganda","method":"Digitized","doi":null}},{"type":"Feature","geometry":{"type":"Point","coordinates":[29.96854435,-0.701084205]},"properties":{"src_id":"9","incidences":1,"occurrence":1,"country":"Uganda","method":"Digitized","doi":null}},{"type":"Feature","geometry":{"type":"Point","coordinates":[30.93573324,-0.78185526]},"properties":{"src_id":"10","incidences":1,"occurrence":1,"country":"Uganda","method":"Digitized","doi":null}},{"type":"Feature","geometry":{"type":"Point","coordinates":[31.28361033,-0.977359498]},"properties":{"src_id":"11","incidences":1,"occurrence":1,"country":"Uganda","method":"Digitized","doi":null}},{"type":"Feature","geometry":{"type":"Point","coordinates":[32.17305394,1.894447679]},"properties":{"src_id":"12","incidences":1,"occurrence":1,"country":"Uganda","method":"Digitized","doi":null}},{"type":"Feature","geometry":{"type":"Point","coordinates":[32.28946465,1.938936059]},"properties":{"src_id":"13","incidences":1,"occurrence":1,"country":"Uganda","method":"Digitized","doi":null}},{"type":"Feature","geometry":{"type":"Point","coordinates":[30.77242717,-0.497671969]},"properties":{"src_id":"14","incidences":1,"occurrence":1,"country":"Uganda","method":"Digitized","doi":null}},{"type":"Feature","geometry":{"type":"Point","coordinates":[25.35087562,13.19817666]},"properties":{"src_id":"2","incidences":1,"occurrence":1,"country":"Sudan","method":"Digitized","doi":null}},{"type":"Feature","geometry":{"type":"Point","coordinates":[26.81628214,13.62849494]},"properties":{"src_id":"4","incidences":1,"occurrence":1,"country":"Sudan","method":"Digitized","doi":null}},{"type":"Feature","geometry":{"type":"Point","coordinates":[26.53979034,14.21890083]},"properties":{"src_id":"6","incidences":1,"occurrence":1,"country":"Sudan","method":"Digitized","doi":null}},{"type":"Feature","geometry":{"type":"Point","coordinates":[25.84856085,14.45999067]},"properties":{"src_id":"7","incidences":1,"occurrence":1,"country":"Sudan","method":"Digitized","doi":null}},{"type":"Feature","geometry":{"type":"Point","coordinates":[25.29557726,13.84336219]},"properties":{"src_id":"8","incidences":1,"occurrence":1,"country":"Sudan","method":"Digitized","doi":null}},{"type":"Feature","geometry":{"type":"Point","coordinates":[24.63199695,14.5938168]},"properties":{"src_id":"9","incidences":1,"occurrence":1,"country":"Sudan","method":"Digitized","doi":null}},{"type":"Feature","geometry":{"type":"Point","coordinates":[24.1619609,15.31505532]},"properties":{"src_id":"10","incidences":1,"occurrence":1,"country":"Sudan","method":"Digitized","doi":null}},{"type":"Feature","geometry":{"type":"Point","coordinates":[23.66427567,15.18167642]},"properties":{"src_id":"11","incidences":1,"occurrence":1,"country":"Sudan","method":"Digitized","doi":null}},{"type":"Feature","geometry":{"type":"Point","coordinates":[23.60897731,14.08485058]},"properties":{"src_id":"12","incidences":1,"occurrence":1,"country":"Sudan","method":"Digitized","doi":null}},{"type":"Feature","geometry":{"type":"Point","coordinates":[22.91774782,14.96809512]},"properties":{"src_id":"13","incidences":1,"occurrence":1,"country":"Sudan","method":"Digitized","doi":null}},{"type":"Feature","geometry":{"type":"Point","coordinates":[22.72420356,14.56705806]},"properties":{"src_id":"14","incidences":1,"occurrence":1,"country":"Sudan","method":"Digitized","doi":null}},{"type":"Feature","geometry":{"type":"Point","coordinates":[22.945397,13.97755367]},"properties":{"src_id":"15","incidences":1,"occurrence":1,"country":"Sudan","method":"Digitized","doi":null}},{"type":"Feature","geometry":{"type":"Point","coordinates":[22.53065931,13.81651458]},"properties":{"src_id":"16","incidences":1,"occurrence":1,"country":"Sudan","method":"Digitized","doi":null}},{"type":"Feature","geometry":{"type":"Point","coordinates":[22.39241341,13.41343214]},"properties":{"src_id":"17","incidences":1,"occurrence":1,"country":"Sudan","method":"Digitized","doi":null}},{"type":"Feature","geometry":{"type":"Point","coordinates":[22.86244946,13.35963622]},"properties":{"src_id":"18","incidences":1,"occurrence":1,"country":"Sudan","method":"Digitized","doi":null}},{"type":"Feature","geometry":{"type":"Point","coordinates":[23.60897731,13.54786915]},"properties":{"src_id":"19","incidences":1,"occurrence":1,"country":"Sudan","method":"Digitized","doi":null}},{"type":"Feature","geometry":{"type":"Point","coordinates":[24.18961008,13.6553641]},"properties":{"src_id":"20","incidences":1,"occurrence":1,"country":"Sudan","method":"Digitized","doi":null}},{"type":"Feature","geometry":{"type":"Point","coordinates":[24.35550516,13.27891986]},"properties":{"src_id":"21","incidences":1,"occurrence":1,"country":"Sudan","method":"Digitized","doi":null}},{"type":"Feature","geometry":{"type":"Point","coordinates":[24.77024285,13.46721602]},"properties":{"src_id":"22","incidences":1,"occurrence":1,"country":"Sudan","method":"Digitized","doi":null}},{"type":"Feature","geometry":{"type":"Point","coordinates":[25.95915757,13.17125632]},"properties":{"src_id":"24","incidences":1,"occurrence":1,"country":"Sudan","method":"Digitized","doi":null}},{"type":"Feature","geometry":{"type":"Point","coordinates":[25.32322644,13.19817666]},"properties":{"src_id":"25","incidences":1,"occurrence":1,"country":"Sudan","method":"Digitized","doi":null}},{"type":"Feature","geometry":{"type":"Point","coordinates":[24.57669859,13.25200844]},"properties":{"src_id":"27","incidences":1,"occurrence":1,"country":"Sudan","method":"Digitized","doi":null}},{"type":"Feature","geometry":{"type":"Point","coordinates":[24.05136418,13.06354541]},"properties":{"src_id":"28","incidences":1,"occurrence":1,"country":"Sudan","method":"Digitized","doi":null}},{"type":"Feature","geometry":{"type":"Point","coordinates":[23.55367895,13.03661032]},"properties":{"src_id":"29","incidences":1,"occurrence":1,"country":"Sudan","method":"Digitized","doi":null}},{"type":"Feature","geometry":{"type":"Point","coordinates":[23.05599372,12.95578749]},"properties":{"src_id":"30","incidences":1,"occurrence":1,"country":"Sudan","method":"Digitized","doi":null}},{"type":"Feature","geometry":{"type":"Point","coordinates":[22.11592161,13.0096723]},"properties":{"src_id":"31","incidences":1,"occurrence":1,"country":"Sudan","method":"Digitized","doi":null}},{"type":"Feature","geometry":{"type":"Point","coordinates":[22.53065931,12.74013209]},"properties":{"src_id":"32","incidences":1,"occurrence":1,"country":"Sudan","method":"Digitized","doi":null}},{"type":"Feature","geometry":{"type":"Point","coordinates":[22.58595767,12.33528543]},"properties":{"src_id":"33","incidences":1,"occurrence":1,"country":"Sudan","method":"Digitized","doi":null}},{"type":"Feature","geometry":{"type":"Point","coordinates":[23.13894126,12.30827316]},"properties":{"src_id":"34","incidences":1,"occurrence":1,"country":"Sudan","method":"Digitized","doi":null}},{"type":"Feature","geometry":{"type":"Point","coordinates":[23.71957403,12.33528543]},"properties":{"src_id":"35","incidences":1,"occurrence":1,"country":"Sudan","method":"Digitized","doi":null}},{"type":"Feature","geometry":{"type":"Point","coordinates":[24.21725926,12.57826984]},"properties":{"src_id":"36","incidences":1,"occurrence":1,"country":"Sudan","method":"Digitized","doi":null}},{"type":"Feature","geometry":{"type":"Point","coordinates":[24.63199695,13.03661032]},"properties":{"src_id":"37","incidences":1,"occurrence":1,"country":"Sudan","method":"Digitized","doi":null}},{"type":"Feature","geometry":{"type":"Point","coordinates":[24.82554121,12.60525401]},"properties":{"src_id":"38","incidences":1,"occurrence":1,"country":"Sudan","method":"Digitized","doi":null}},{"type":"Feature","geometry":{"type":"Point","coordinates":[25.35087562,12.60525401]},"properties":{"src_id":"39","incidences":1,"occurrence":1,"country":"Sudan","method":"Digitized","doi":null}},{"type":"Feature","geometry":{"type":"Point","coordinates":[24.77024285,12.20019636]},"properties":{"src_id":"40","incidences":1,"occurrence":1,"country":"Sudan","method":"Digitized","doi":null}},{"type":"Feature","geometry":{"type":"Point","coordinates":[25.07438383,12.03799859]},"properties":{"src_id":"41","incidences":1,"occurrence":1,"country":"Sudan","method":"Digitized","doi":null}},{"type":"Feature","geometry":{"type":"Point","coordinates":[25.76561332,12.3893016]},"properties":{"src_id":"42","incidences":1,"occurrence":1,"country":"Sudan","method":"Digitized","doi":null}},{"type":"Feature","geometry":{"type":"Point","coordinates":[26.5950887,12.60525401]},"properties":{"src_id":"43","incidences":1,"occurrence":1,"country":"Sudan","method":"Digitized","doi":null}},{"type":"Feature","geometry":{"type":"Point","coordinates":[26.84393132,11.98391084]},"properties":{"src_id":"44","incidences":1,"occurrence":1,"country":"Sudan","method":"Digitized","doi":null}},{"type":"Feature","geometry":{"type":"Point","coordinates":[27.03747558,11.46954303]},"properties":{"src_id":"45","incidences":1,"occurrence":1,"country":"Sudan","method":"Digitized","doi":null}},{"type":"Feature","geometry":{"type":"Point","coordinates":[26.56743952,11.57791032]},"properties":{"src_id":"46","incidences":1,"occurrence":1,"country":"Sudan","method":"Digitized","doi":null}},{"type":"Feature","geometry":{"type":"Point","coordinates":[26.15270183,11.74038246]},"properties":{"src_id":"47","incidences":1,"occurrence":1,"country":"Sudan","method":"Digitized","doi":null}},{"type":"Feature","geometry":{"type":"Point","coordinates":[25.59971824,11.79451863]},"properties":{"src_id":"48","incidences":1,"occurrence":1,"country":"Sudan","method":"Digitized","doi":null}},{"type":"Feature","geometry":{"type":"Point","coordinates":[24.41080352,11.71331038]},"properties":{"src_id":"50","incidences":1,"occurrence":1,"country":"Sudan","method":"Digitized","doi":null}},{"type":"Feature","geometry":{"type":"Point","coordinates":[23.91311828,11.76745187]},"properties":{"src_id":"51","incidences":1,"occurrence":1,"country":"Sudan","method":"Digitized","doi":null}},{"type":"Feature","geometry":{"type":"Point","coordinates":[23.49838059,11.79451863]},"properties":{"src_id":"52","incidences":1,"occurrence":1,"country":"Sudan","method":"Digitized","doi":null}},{"type":"Feature","geometry":{"type":"Point","coordinates":[22.77950192,11.82158271]},"properties":{"src_id":"53","incidences":1,"occurrence":1,"country":"Sudan","method":"Digitized","doi":null}},{"type":"Feature","geometry":{"type":"Point","coordinates":[23.2218888,11.30691419]},"properties":{"src_id":"54","incidences":1,"occurrence":1,"country":"Sudan","method":"Digitized","doi":null}},{"type":"Feature","geometry":{"type":"Point","coordinates":[23.69192485,10.95423658]},"properties":{"src_id":"55","incidences":1,"occurrence":1,"country":"Sudan","method":"Digitized","doi":null}},{"type":"Feature","geometry":{"type":"Point","coordinates":[23.60897731,10.60113831]},"properties":{"src_id":"56","incidences":1,"occurrence":1,"country":"Sudan","method":"Digitized","doi":null}},{"type":"Feature","geometry":{"type":"Point","coordinates":[24.27255762,10.16599743]},"properties":{"src_id":"57","incidences":1,"occurrence":1,"country":"Sudan","method":"Digitized","doi":null}},{"type":"Feature","geometry":{"type":"Point","coordinates":[24.3002068,10.92708995]},"properties":{"src_id":"58","incidences":1,"occurrence":1,"country":"Sudan","method":"Digitized","doi":null}},{"type":"Feature","geometry":{"type":"Point","coordinates":[24.57669859,10.87278924]},"properties":{"src_id":"59","incidences":1,"occurrence":1,"country":"Sudan","method":"Digitized","doi":null}},{"type":"Feature","geometry":{"type":"Point","coordinates":[24.77024285,11.11706392]},"properties":{"src_id":"60","incidences":1,"occurrence":1,"country":"Sudan","method":"Digitized","doi":null}},{"type":"Feature","geometry":{"type":"Point","coordinates":[25.18498054,11.25268399]},"properties":{"src_id":"61","incidences":1,"occurrence":1,"country":"Sudan","method":"Digitized","doi":null}},{"type":"Feature","geometry":{"type":"Point","coordinates":[25.98680675,11.27980037]},"properties":{"src_id":"62","incidences":1,"occurrence":1,"country":"Sudan","method":"Digitized","doi":null}},{"type":"Feature","geometry":{"type":"Point","coordinates":[25.90385921,10.76415819]},"properties":{"src_id":"63","incidences":1,"occurrence":1,"country":"Sudan","method":"Digitized","doi":null}},{"type":"Feature","geometry":{"type":"Point","coordinates":[25.57206906,10.7369943]},"properties":{"src_id":"64","incidences":1,"occurrence":1,"country":"Sudan","method":"Digitized","doi":null}},{"type":"Feature","geometry":{"type":"Point","coordinates":[24.99143629,10.62831435]},"properties":{"src_id":"65","incidences":1,"occurrence":1,"country":"Sudan","method":"Digitized","doi":null}},{"type":"Feature","geometry":{"type":"Point","coordinates":[26.4568428,10.24763228]},"properties":{"src_id":"67","incidences":1,"occurrence":1,"country":"Sudan","method":"Digitized","doi":null}},{"type":"Feature","geometry":{"type":"Point","coordinates":[27.17572147,10.38364356]},"properties":{"src_id":"68","incidences":1,"occurrence":1,"country":"Sudan","method":"Digitized","doi":null}},{"type":"Feature","geometry":{"type":"Point","coordinates":[31.10190497,13.22509403]},"properties":{"src_id":"69","incidences":1,"occurrence":1,"country":"Sudan","method":"Digitized","doi":null}},{"type":"Feature","geometry":{"type":"Point","coordinates":[29.96828861,13.06354541]},"properties":{"src_id":"70","incidences":1,"occurrence":1,"country":"Sudan","method":"Digitized","doi":null}},{"type":"Feature","geometry":{"type":"Point","coordinates":[30.32772794,14.0312084]},"properties":{"src_id":"71","incidences":1,"occurrence":1,"country":"Sudan","method":"Digitized","doi":null}},{"type":"Feature","geometry":{"type":"Point","coordinates":[30.93600989,15.42169728]},"properties":{"src_id":"73","incidences":1,"occurrence":1,"country":"Sudan","method":"Digitized","doi":null}},{"type":"Feature","geometry":{"type":"Point","coordinates":[28.50288209,15.34172092]},"properties":{"src_id":"74","incidences":1,"occurrence":1,"country":"Sudan","method":"Digitized","doi":null}},{"type":"Feature","geometry":{"type":"Point","coordinates":[25.76561332,17.59531587]},"properties":{"src_id":"75","incidences":1,"occurrence":1,"country":"Sudan","method":"Digitized","doi":null}},{"type":"Feature","geometry":{"type":"Point","coordinates":[31.29544923,6.116034556]},"properties":{"src_id":"76","incidences":1,"occurrence":1,"country":"South Sudan","method":"Digitized","doi":null}},{"type":"Feature","geometry":{"type":"Point","coordinates":[30.77011482,6.775416407]},"properties":{"src_id":"77","incidences":1,"occurrence":1,"country":"South Sudan","method":"Digitized","doi":null}},{"type":"Feature","geometry":{"type":"Point","coordinates":[30.43832466,6.390880891]},"properties":{"src_id":"78","incidences":1,"occurrence":1,"country":"South Sudan","method":"Digitized","doi":null}},{"type":"Feature","geometry":{"type":"Point","coordinates":[34.91749175,0.832835377]},"properties":{"src_id":"79","incidences":1,"occurrence":1,"country":"Kenya","method":"Digitized","doi":null}},{"type":"Feature","geometry":{"type":"Point","coordinates":[34.8483688,1.883194369]},"properties":{"src_id":"80","incidences":1,"occurrence":1,"country":"Uganda","method":"Digitized","doi":null}},{"type":"Feature","geometry":{"type":"Point","coordinates":[34.51657865,1.966095107]},"properties":{"src_id":"81","incidences":1,"occurrence":1,"country":"Uganda","method":"Digitized","doi":null}},{"type":"Feature","geometry":{"type":"Point","coordinates":[34.5857016,2.656757997]},"properties":{"src_id":"82","incidences":1,"occurrence":1,"country":"Uganda","method":"Digitized","doi":null}},{"type":"Feature","geometry":{"type":"Point","coordinates":[34.1709639,2.380533568]},"properties":{"src_id":"83","incidences":1,"occurrence":1,"country":"Uganda","method":"Digitized","doi":null}},{"type":"Feature","geometry":{"type":"Point","coordinates":[34.08801636,3.636811856]},"properties":{"src_id":"84","incidences":1,"occurrence":1,"country":"Uganda","method":"Digitized","doi":null}},{"type":"Feature","geometry":{"type":"Point","coordinates":[33.96359506,3.070976803]},"properties":{"src_id":"85","incidences":1,"occurrence":1,"country":"Uganda","method":"Digitized","doi":null}},{"type":"Feature","geometry":{"type":"Point","coordinates":[33.67327867,2.794847444]},"properties":{"src_id":"86","incidences":1,"occurrence":1,"country":"Uganda","method":"Digitized","doi":null}},{"type":"Feature","geometry":{"type":"Point","coordinates":[33.13411967,2.021359988]},"properties":{"src_id":"87","incidences":1,"occurrence":1,"country":"Uganda","method":"Digitized","doi":null}},{"type":"Feature","geometry":{"type":"Point","coordinates":[33.21706721,2.311468559]},"properties":{"src_id":"88","incidences":1,"occurrence":1,"country":"Uganda","method":"Digitized","doi":null}},{"type":"Feature","geometry":{"type":"Point","coordinates":[33.34148852,2.905307344]},"properties":{"src_id":"89","incidences":1,"occurrence":1,"country":"Uganda","method":"Digitized","doi":null}},{"type":"Feature","geometry":{"type":"Point","coordinates":[33.14794426,3.443637033]},"properties":{"src_id":"90","incidences":1,"occurrence":1,"country":"Uganda","method":"Digitized","doi":null}},{"type":"Feature","geometry":{"type":"Point","coordinates":[33.07882131,1.910828395]},"properties":{"src_id":"91","incidences":1,"occurrence":1,"country":"Uganda","method":"Digitized","doi":null}},{"type":"Feature","geometry":{"type":"Point","coordinates":[33.00969836,2.29765515]},"properties":{"src_id":"92","incidences":1,"occurrence":1,"country":"Uganda","method":"Digitized","doi":null}},{"type":"Feature","geometry":{"type":"Point","coordinates":[32.70555739,3.540229481]},"properties":{"src_id":"93","incidences":1,"occurrence":1,"country":"Uganda","method":"Digitized","doi":null}},{"type":"Feature","geometry":{"type":"Point","coordinates":[32.89910164,2.91911408]},"properties":{"src_id":"94","incidences":1,"occurrence":1,"country":"Uganda","method":"Digitized","doi":null}},{"type":"Feature","geometry":{"type":"Point","coordinates":[32.70555739,2.29765515]},"properties":{"src_id":"95","incidences":1,"occurrence":1,"country":"Uganda","method":"Digitized","doi":null}},{"type":"Feature","geometry":{"type":"Point","coordinates":[32.74703116,1.565373188]},"properties":{"src_id":"96","incidences":1,"occurrence":1,"country":"Uganda","method":"Digitized","doi":null}},{"type":"Feature","geometry":{"type":"Point","coordinates":[32.51201313,1.883194369]},"properties":{"src_id":"97","incidences":1,"occurrence":1,"country":"Uganda","method":"Digitized","doi":null}},{"type":"Feature","geometry":{"type":"Point","coordinates":[32.52583772,2.408158608]},"properties":{"src_id":"98","incidences":1,"occurrence":1,"country":"Uganda","method":"Digitized","doi":null}},{"type":"Feature","geometry":{"type":"Point","coordinates":[32.35994264,2.946727042]},"properties":{"src_id":"99","incidences":1,"occurrence":1,"country":"Uganda","method":"Digitized","doi":null}},{"type":"Feature","geometry":{"type":"Point","coordinates":[31.80695905,2.54627528]},"properties":{"src_id":"100","incidences":1,"occurrence":1,"country":"Uganda","method":"Digitized","doi":null}},{"type":"Feature","geometry":{"type":"Point","coordinates":[32.16639838,3.043366974]},"properties":{"src_id":"101","incidences":1,"occurrence":1,"country":"Uganda","method":"Digitized","doi":null}},{"type":"Feature","geometry":{"type":"Point","coordinates":[31.83460823,3.181408919]},"properties":{"src_id":"102","incidences":1,"occurrence":1,"country":"Uganda","method":"Digitized","doi":null}},{"type":"Feature","geometry":{"type":"Point","coordinates":[31.75166069,3.595420661]},"properties":{"src_id":"103","incidences":1,"occurrence":1,"country":"Uganda","method":"Digitized","doi":null}},{"type":"Feature","geometry":{"type":"Point","coordinates":[31.40604595,3.581623177]},"properties":{"src_id":"104","incidences":1,"occurrence":1,"country":"Uganda","method":"Digitized","doi":null}},{"type":"Feature","geometry":{"type":"Point","coordinates":[31.07425579,3.595420661]},"properties":{"src_id":"105","incidences":1,"occurrence":1,"country":"Uganda","method":"Digitized","doi":null}},{"type":"Feature","geometry":{"type":"Point","coordinates":[31.07425579,3.19521211]},"properties":{"src_id":"106","incidences":1,"occurrence":1,"country":"Uganda","method":"Digitized","doi":null}},{"type":"Feature","geometry":{"type":"Point","coordinates":[31.11572956,2.932920646]},"properties":{"src_id":"107","incidences":1,"occurrence":1,"country":"Uganda","method":"Digitized","doi":null}},{"type":"Feature","geometry":{"type":"Point","coordinates":[31.88990659,2.601517848]},"properties":{"src_id":"108","incidences":1,"occurrence":1,"country":"Uganda","method":"Digitized","doi":null}},{"type":"Feature","geometry":{"type":"Point","coordinates":[30.9221853,2.532464266]},"properties":{"src_id":"109","incidences":1,"occurrence":1,"country":"Uganda","method":"Digitized","doi":null}},{"type":"Feature","geometry":{"type":"Point","coordinates":[31.28162464,2.463407002]},"properties":{"src_id":"110","incidences":1,"occurrence":1,"country":"Uganda","method":"Digitized","doi":null}},{"type":"Feature","geometry":{"type":"Point","coordinates":[31.15720333,1.41335412]},"properties":{"src_id":"111","incidences":1,"occurrence":1,"country":"Uganda","method":"Digitized","doi":null}},{"type":"Feature","geometry":{"type":"Point","coordinates":[31.86225741,0.777542481]},"properties":{"src_id":"112","incidences":1,"occurrence":1,"country":"Uganda","method":"Digitized","doi":null}},{"type":"Feature","geometry":{"type":"Point","coordinates":[32.02815249,0.95724148]},"properties":{"src_id":"113","incidences":1,"occurrence":1,"country":"Uganda","method":"Digitized","doi":null}},{"type":"Feature","geometry":{"type":"Point","coordinates":[32.31846887,1.123109162]},"properties":{"src_id":"114","incidences":1,"occurrence":1,"country":"Uganda","method":"Digitized","doi":null}},{"type":"Feature","geometry":{"type":"Point","coordinates":[32.60878526,0.943418792]},"properties":{"src_id":"116","incidences":1,"occurrence":1,"country":"Uganda","method":"Digitized","doi":null}},{"type":"Feature","geometry":{"type":"Point","coordinates":[32.60878526,0.307528819]},"properties":{"src_id":"117","incidences":1,"occurrence":1,"country":"Uganda","method":"Digitized","doi":null}},{"type":"Feature","geometry":{"type":"Point","coordinates":[27.8,10.45]},"properties":{"src_id":"1","incidences":7,"occurrence":1,"country":"Abyei (Sudan/South Sudan border region)","method":"search name","doi":"doi:10.1371/journal.pntd.0001159"}}]}